NORAD_CAT_ID,OBJECT_NAME,OBJECT_TYPE,EPOCH,MEAN_MOTION,ECCENTRICITY,INCLINATION,RA_OF_ASC_NODE,ARG_OF_PERICENTER,MEAN_ANOMALY,BSTAR,MEAN_MOTION_DOT,MEAN_MOTION_DDOT,TLE_LINE0,TLE_LINE1,TLE_LINE2,SEMIMAJOR_AXIS,PERIOD,APOGEE,PERIGEE,DECAYED
53789.0,STARLINK-4666,PAYLOAD,2024-07-16 21:58:47,15.08837372,0.0001424,53.2161,90.82,95.7591,264.3564,0.00029876,4.47e-05,0.0,0 STARLINK-4666,1 53789U 22111S   24198.91582589  .00004470  00000-0  29876-3 0  9990,2 53789  53.2161  90.8200 0001424  95.7591 264.3564 15.08837372102993,6917.888,95.438,540.739,538.768,0.0
53789.0,STARLINK-4666,PAYLOAD,2024-07-16 23:34:10,15.08837519,0.000136,53.2159,90.5235,93.2278,266.887,0.0001673,2.375e-05,0.0,0 STARLINK-4666,1 53789U 22111S   24198.98206579  .00002375  00000-0  16730-3 0  9996,2 53789  53.2159  90.5235 0001360  93.2278 266.8870 15.08837519103002,6917.888,95.438,540.694,538.812,0.0
53789.0,STARLINK-4666,PAYLOAD,2024-07-17 20:14:11,15.08840489,0.0001323,53.2156,86.6548,91.5413,268.5731,0.0001851,2.659e-05,0.0,0 STARLINK-4666,1 53789U 22111S   24199.84318783  .00002659  00000-0  18510-3 0  9996,2 53789  53.2156  86.6548 0001323  91.5413 268.5731 15.08840489102333,6917.879,95.438,540.659,538.829,0.0
53789.0,STARLINK-4666,PAYLOAD,2024-07-17 23:24:57,15.08841083,0.0001277,53.2163,86.0627,84.8935,275.2203,0.00024617,3.632e-05,0.0,0 STARLINK-4666,1 53789U 22111S   24199.97566867  .00003632  00000-0  24617-3 0  9995,2 53789  53.2163  86.0627 0001277  84.8935 275.2203 15.08841083103156,6917.877,95.437,540.625,538.859,0.0
53789.0,STARLINK-4666,PAYLOAD,2024-07-18 08:57:15,15.08855988,0.0001368,53.2174,84.2817,99.6033,260.5114,0.00043865,6.703e-05,0.0,0 STARLINK-4666,1 53789U 22111S   24200.37310154  .00006703  00000-0  43865-3 0  9996,2 53789  53.2174  84.2817 0001368  99.6033 260.5114 15.08855988102418,6917.832,95.437,540.643,538.75,0.0
53789.0,STARLINK-4666,PAYLOAD,2024-07-18 20:04:58,15.08829625,0.000146,53.2169,82.2027,103.1524,256.9632,-0.00011249,-2.077e-05,0.0,0 STARLINK-4666,1 53789U 22111S   24200.83679225 -.00002077  00000-0 -11249-3 0  9997,2 53789  53.2169  82.2027 0001460 103.1524 256.9632 15.08829625102482,6917.912,95.438,540.787,538.767,0.0
53789.0,STARLINK-4666,PAYLOAD,2024-07-18 21:40:22,15.08832113,0.0001577,53.2169,81.9064,108.5821,251.5342,-1.4837e-05,-5.24e-06,0.0,0 STARLINK-4666,1 53789U 22111S   24200.90303256 -.00000524  00000-0 -14837-4 0  9995,2 53789  53.2169  81.9064 0001577 108.5821 251.5342 15.08832113103292,6917.904,95.438,540.86,538.679,0.0
53789.0,STARLINK-4666,PAYLOAD,2024-07-19 08:48:03,15.08850202,0.0001131,53.216,79.823,89.3409,270.7713,0.00031768,4.773e-05,0.0,0 STARLINK-4666,1 53789U 22111S   24201.36670647  .00004773  00000-0  31768-3 0  9996,2 53789  53.2160  79.8230 0001131  89.3409 270.7713 15.08850202102561,6917.849,95.437,540.497,538.932,0.0
53789.0,STARLINK-4666,PAYLOAD,2024-07-19 19:55:45,15.08830929,0.0001217,53.2167,77.7382,80.5557,279.5573,-0.00013998,-2.514e-05,0.0,0 STARLINK-4666,1 53789U 22111S   24201.83039248 -.00002514  00000-0 -13998-3 0  9992,2 53789  53.2167  77.7382 0001217  80.5557 279.5573 15.08830929102638,6917.908,95.438,540.615,538.931,0.0
53789.0,STARLINK-4666,PAYLOAD,2024-07-19 21:31:09,15.08832956,0.0001447,53.2159,77.4409,76.2769,283.8384,-4.03e-05,-9.29e-06,0.0,0 STARLINK-4666,1 53789U 22111S   24201.89663416 -.00000929  00000-0 -40300-4 0  9994,2 53789  53.2159  77.4409 0001447  76.2769 283.8384 15.08832956103448,6917.902,95.438,540.768,538.766,0.0
53789.0,STARLINK-4666,PAYLOAD,2024-07-20 00:41:55,15.08841022,0.0001502,53.2172,76.8503,90.67,269.4464,0.00017766,2.541e-05,0.0,0 STARLINK-4666,1 53789U 22111S   24202.02911182  .00002541  00000-0  17766-3 0  9995,2 53789  53.2172  76.8503 0001502  90.6700 269.4464 15.08841022102664,6917.877,95.437,540.781,538.703,0.0
53789.0,STARLINK-4666,PAYLOAD,2024-07-20 08:38:50,15.08849209,0.0001546,53.2175,75.3628,93.7033,266.4136,0.00043642,6.666e-05,0.0,0 STARLINK-4666,1 53789U 22111S   24202.36030891  .00006666  00000-0  43642-3 0  9995,2 53789  53.2175  75.3628 0001546  93.7033 266.4136 15.08849209103513,6917.852,95.437,540.787,538.648,0.0
53789.0,STARLINK-4666,PAYLOAD,2024-07-20 21:21:56,15.08839042,0.0001277,53.2156,72.983,90.4635,269.6504,0.00024264,3.576e-05,0.0,0 STARLINK-4666,1 53789U 22111S   24202.89023346  .00003576  00000-0  24264-3 0  9996,2 53789  53.2156  72.9830 0001277  90.4635 269.6504 15.08839042103599,6917.883,95.438,540.632,538.865,0.0
53789.0,STARLINK-4666,PAYLOAD,2024-07-21 00:32:42,15.08840809,0.0001298,53.2149,72.3869,97.6547,262.4592,0.00074131,0.0001153,0.0,0 STARLINK-4666,1 53789U 22111S   24203.02271382  .00011530  00000-0  74131-3 0  9994,2 53789  53.2149  72.3869 0001298  97.6547 262.4592 15.08840809103615,6917.878,95.438,540.641,538.845,0.0
53789.0,STARLINK-4666,PAYLOAD,2024-07-21 21:12:43,15.08846976,0.0001347,53.2159,68.519,87.5436,272.571,0.00054751,8.438e-05,0.0,0 STARLINK-4666,1 53789U 22111S   24203.88383419  .00008438  00000-0  54751-3 0  9992,2 53789  53.2159  68.5190 0001347  87.5436 272.5710 15.08846976102940,6917.859,95.437,540.656,538.792,0.0
53789.0,STARLINK-4666,PAYLOAD,2024-07-22 14:41:57,15.08846872,0.0001333,53.2149,65.2492,86.5894,273.5251,0.00041143,6.267e-05,0.0,0 STARLINK-4666,1 53789U 22111S   24204.61247357  .00006267  00000-0  41143-3 0  9993,2 53789  53.2149  65.2492 0001333  86.5894 273.5251 15.08846872103857,6917.859,95.437,540.647,538.802,0.0
53789.0,STARLINK-4666,PAYLOAD,2024-07-23 08:11:11,15.08858053,0.0001303,53.215,61.9771,84.952,275.162,0.0005048,7.759e-05,0.0,0 STARLINK-4666,1 53789U 22111S   24205.34110693  .00007759  00000-0  50480-3 0  9997,2 53789  53.2150  61.9771 0001303  84.9520 275.1620 15.08858053103961,6917.825,95.436,540.592,538.789,0.0
53789.0,STARLINK-4666,PAYLOAD,2024-07-24 00:05:03,15.08833232,0.0001819,53.2152,59.0043,77.8305,282.2891,-2.8944e-05,-7.49e-06,0.0,0 STARLINK-4666,1 53789U 22111S   24206.00351608 -.00000749  00000-0 -28944-4 0  9999,2 53789  53.2152  59.0043 0001819  77.8305 282.2891 15.08833232103261,6917.901,95.438,541.024,538.508,0.0
53789.0,STARLINK-4666,PAYLOAD,2024-07-25 20:35:51,15.08846446,8.72e-05,53.2156,50.6755,83.6995,276.4096,0.00037523,5.69e-05,0.0,0 STARLINK-4666,1 53789U 22111S   24207.85823707  .00005690  00000-0  37523-3 0  9997,2 53789  53.2156  50.6755 0000872  83.6995 276.4096 15.08846446103544,6917.861,95.437,540.329,539.122,0.0
53789.0,STARLINK-4666,PAYLOAD,2024-07-26 14:05:06,15.08842645,0.0001617,53.2165,47.405,92.3036,267.8141,6.5942e-05,7.62e-06,0.0,0 STARLINK-4666,1 53789U 22111S   24208.58687601  .00000762  00000-0  65942-4 0  9991,2 53789  53.2165  47.4050 0001617  92.3036 267.8141 15.08842645104450,6917.872,95.437,540.856,538.619,0.0
53789.0,STARLINK-4666,PAYLOAD,2024-07-26 20:26:38,15.08850142,0.0001765,53.2163,46.216,92.4143,267.7051,0.00021778,3.181e-05,0.0,0 STARLINK-4666,1 53789U 22111S   24208.85183272  .00003181  00000-0  21778-3 0  9992,2 53789  53.2163  46.2160 0001765  92.4143 267.7051 15.08850142104495,6917.849,95.437,540.935,538.493,0.0
53789.0,STARLINK-4666,PAYLOAD,2024-07-26 23:37:24,15.0885026,0.0001251,53.2166,45.6208,81.2015,278.9119,0.00023509,3.457e-05,0.0,0 STARLINK-4666,1 53789U 22111S   24208.98431206  .00003457  00000-0  23509-3 0  9999,2 53789  53.2166  45.6208 0001251  81.2015 278.9119 15.08850260103712,6917.849,95.437,540.579,538.849,0.0
53789.0,STARLINK-4666,PAYLOAD,2024-07-27 21:52:49,15.08833973,0.0001318,53.2129,41.4614,99.8575,260.2566,-1.6608e-05,-5.52e-06,0.0,0 STARLINK-4666,1 53789U 22111S   24209.91168027 -.00000552  00000-0 -16608-4 0  9999,2 53789  53.2129  41.4614 0001318  99.8575 260.2566 15.08833973104652,6917.899,95.438,540.676,538.852,0.0
53789.0,STARLINK-4666,PAYLOAD,2024-07-28 21:43:36,15.08845214,0.0001369,53.2162,36.997,83.7382,276.3766,0.00026972,4.008e-05,0.0,0 STARLINK-4666,1 53789U 22111S   24210.90528172  .00004008  00000-0  26972-3 0  9993,2 53789  53.2162  36.9970 0001369  83.7382 276.3766 15.08845214104805,6917.864,95.437,540.677,538.782,0.0
53789.0,STARLINK-4666,PAYLOAD,2024-07-29 12:02:04,15.08846621,0.000139,53.2151,34.3227,85.6908,274.4242,0.00035522,5.371e-05,0.0,0 STARLINK-4666,1 53789U 22111S   24211.50144258  .00005371  00000-0  35522-3 0  9994,2 53789  53.2151  34.3227 0001390  85.6908 274.4242 15.08846621104899,6917.86,95.437,540.687,538.764,0.0
53789.0,STARLINK-4666,PAYLOAD,2024-07-29 19:59:00,15.08850029,0.000141,53.2161,32.8349,85.7442,274.3711,0.00040539,6.171e-05,0.0,0 STARLINK-4666,1 53789U 22111S   24211.83264164  .00006171  00000-0  40539-3 0  9992,2 53789  53.2161  32.8349 0001410  85.7442 274.3711 15.08850029104948,6917.85,95.437,540.69,538.739,0.0
53789.0,STARLINK-4666,PAYLOAD,2024-07-30 05:31:18,15.08856842,0.000141,53.216,31.0504,84.8159,275.2994,0.00044946,6.876e-05,0.0,0 STARLINK-4666,1 53789U 22111S   24212.23007734  .00006876  00000-0  44946-3 0  9993,2 53789  53.2160  31.0504 0001410  84.8159 275.2994 15.08856842104207,6917.829,95.436,540.669,538.718,0.0
53789.0,STARLINK-4666,PAYLOAD,2024-07-30 18:14:23,15.08852227,0.0001671,53.2161,28.6714,86.7035,273.4148,0.00031605,4.747e-05,0.0,0 STARLINK-4666,1 53789U 22111S   24212.75999883  .00004747  00000-0  31605-3 0  9998,2 53789  53.2161  28.6714 0001671  86.7035 273.4148 15.08852227104288,6917.843,95.437,540.864,538.552,0.0
53789.0,STARLINK-4666,PAYLOAD,2024-07-31 14:54:25,15.08827919,0.0001351,53.2171,24.8062,92.5514,267.5633,-0.00024867,-4.242e-05,0.0,0 STARLINK-4666,1 53789U 22111S   24213.62112298 -.00004242  00000-0 -24867-3 0  9996,2 53789  53.2171  24.8062 0001351  92.5514 267.5633 15.08827919105212,6917.917,95.438,540.717,538.848,0.0
53789.0,STARLINK-4666,PAYLOAD,2024-07-31 21:15:57,15.08838394,0.0001422,53.217,23.6158,94.305,265.8104,4.1812e-05,3.78e-06,0.0,0 STARLINK-4666,1 53789U 22111S   24213.88608246  .00000378  00000-0  41812-4 0  9991,2 53789  53.2170  23.6158 0001422  94.3050 265.8104 15.08838394104456,6917.885,95.438,540.734,538.767,0.0
